IRIDIUM 150             
1 43257U 18030J   23298.62160849  .00000322  00000+0  10787-3 0  9995
2 43257  86.3972 334.0249 0002023  99.9772 260.1653 14.34219432291764
IRIDIUM 143             
1 43258U 18030K   23299.16073455 -.00000174  00000+0 -69382-4 0  9995
2 43258  86.3971 333.8532 0002193  99.1965 260.9479 14.34214730291805
IRIDIUM 161             
1 43478U 18047C   23298.94494262  .00000181  00000+0  47679-4 0  9996
2 43478  86.4466 131.9179 0002037  87.0559 273.0875 14.43289521285915
IRIDIUM 152             
1 43479U 18047D   23298.57532416  .00000081  00000+0  22010-4 0  9991
2 43479  86.3943 131.9320 0002272  92.1191 268.0265 14.34211605284085
IRIDIUM 147             
1 43480U 18047E   23298.93048569  .00000133  00000+0  40273-4 0  9993
2 43480  86.3941 131.7718 0002006  82.3723 277.7700 14.34217310284137
IRIDIUM 110             
1 43481U 18047F   23299.56474017  .00000127  00000+0  38437-4 0  9997
2 43481  86.3946 131.5734 0001866  82.3032 277.8376 14.34216618284214
IRIDIUM 162             
1 43482U 18047G   23298.93872111  .00000172  00000+0  45214-4 0  9996
2 43482  86.4464 131.8236 0002072  87.2737 272.8701 14.43277719285900
IRIDIUM 160             
1 43569U 18061A   23298.88266983  .00000143  00000+0  43853-4 0  9991
2 43569  86.3920 100.2170 0002353  87.2252 272.9213 14.34216899275015
